{
  "type": "FeatureCollection",
  "features": [
    {
      "type": "Feature",
      "properties": {
        "norad_id": 33741,
        "name": "FENGYUN 1C DEB",
        "group": "fengyun-1c-debris",
        "lat": -64.43535423595189,
        "lon": -66.95297811103951,
        "alt_km": 899.9675603614214,
        "timestamp": "2025-12-27T19:21:59.035835+00:00",
        "meta_object_name": "FENGYUN 1C DEB",
        "meta_object_id": "1999-025DJE",
        "meta_epoch": "2025-12-25T13:10:32.197728",
        "meta_mean_motion": 14.09915746,
        "meta_eccentricity": 0.0128978,
        "meta_inclination": 98.5644,
        "meta_ra_of_asc_node": 272.5349,
        "meta_arg_of_pericenter": 52.1735,
        "meta_mean_anomaly": 309.1029,
        "meta_ephemeris_type": 0,
        "meta_classification_type": "U",
        "meta_norad_cat_id": 33741,
        "meta_element_set_no": 999,
        "meta_rev_at_epoch": 57043,
        "meta_bstar": 0.0026249,
        "meta_mean_motion_dot": 4.956e-05,
        "meta_mean_motion_ddot": 0,
        "tle_line1": "1 33741U 99025DJE 25359.54898377  .00004956  00000+0  26249-2 0  9996",
        "tle_line2": "2 33741  98.5644 272.5349 0128978  52.1735 309.1029 14.09915746570435"
      },
      "geometry": {
        "type": "Point",
        "coordinates": [
          -66.95297811103951,
          -64.43535423595189
        ]
      }
    },
    {
      "type": "Feature",
      "properties": {
        "norad_id": 33745,
        "name": "FENGYUN 1C DEB",
        "group": "fengyun-1c-debris",
        "lat": -71.31177669221927,
        "lon": -168.85686860724442,
        "alt_km": 790.312103510324,
        "timestamp": "2025-12-27T19:21:59.035844+00:00",
        "meta_object_name": "FENGYUN 1C DEB",
        "meta_object_id": "1999-025DJJ",
        "meta_epoch": "2025-12-27T01:17:41.720640",
        "meta_mean_motion": 14.2240423,
        "meta_eccentricity": 0.00548454,
        "meta_inclination": 99.1142,
        "meta_ra_of_asc_node": 38.6975,
        "meta_arg_of_pericenter": 225.4998,
        "meta_mean_anomaly": 134.1689,
        "meta_ephemeris_type": 0,
        "meta_classification_type": "U",
        "meta_norad_cat_id": 33745,
        "meta_element_set_no": 999,
        "meta_rev_at_epoch": 66205,
        "meta_bstar": 0.0015651565,
        "meta_mean_motion_dot": 3.493e-05,
        "meta_mean_motion_ddot": 0,
        "tle_line1": "1 33745U 99025DJJ 25361.05395510  .00003493  00000+0  15652-2 0  9991",
        "tle_line2": "2 33745  99.1142  38.6975 0054845 225.4998 134.1689 14.22404230662056"
      },
      "geometry": {
        "type": "Point",
        "coordinates": [
          -168.85686860724442,
          -71.31177669221927
        ]
      }
    },
    {
      "type": "Feature",
      "properties": {
        "norad_id": 33747,
        "name": "FENGYUN 1C DEB",
        "group": "fengyun-1c-debris",
        "lat": -80.29855633334566,
        "lon": -152.70738187654493,
        "alt_km": 841.412640273842,
        "timestamp": "2025-12-27T19:21:59.035855+00:00",
        "meta_object_name": "FENGYUN 1C DEB",
        "meta_object_id": "1999-025DJL",
        "meta_epoch": "2025-12-25T00:03:06.904800",
        "meta_mean_motion": 14.17556919,
        "meta_eccentricity": 0.00908401,
        "meta_inclination": 99.0948,
        "meta_ra_of_asc_node": 93.9706,
        "meta_arg_of_pericenter": 183.5383,
        "meta_mean_anomaly": 176.5159,
        "meta_ephemeris_type": 0,
        "meta_classification_type": "U",
        "meta_norad_cat_id": 33747,
        "meta_element_set_no": 999,
        "meta_rev_at_epoch": 90306,
        "meta_bstar": 0.0026785153,
        "meta_mean_motion_dot": 5.622e-05,
        "meta_mean_motion_ddot": 0,
        "tle_line1": "1 33747U 99025DJL 25359.00216325  .00005622  00000+0  26785-2 0  9996",
        "tle_line2": "2 33747  99.0948  93.9706 0090840 183.5383 176.5159 14.17556919903061"
      },
      "geometry": {
        "type": "Point",
        "coordinates": [
          -152.70738187654493,
          -80.29855633334566
        ]
      }
    },
    {
      "type": "Feature",
      "properties": {
        "norad_id": 33748,
        "name": "FENGYUN 1C DEB",
        "group": "fengyun-1c-debris",
        "lat": 5.961413712888957,
        "lon": 51.90572762868508,
        "alt_km": 810.5772032508612,
        "timestamp": "2025-12-27T19:21:59.035864+00:00",
        "meta_object_name": "FENGYUN 1C DEB",
        "meta_object_id": "1999-025DJM",
        "meta_epoch": "2025-12-20T21:21:40.065984",
        "meta_mean_motion": 14.32332217,
        "meta_eccentricity": 0.0034916,
        "meta_inclination": 98.5853,
        "meta_ra_of_asc_node": 45.9627,
        "meta_arg_of_pericenter": 216.6923,
        "meta_mean_anomaly": 143.1869,
        "meta_ephemeris_type": 0,
        "meta_classification_type": "U",
        "meta_norad_cat_id": 33748,
        "meta_element_set_no": 999,
        "meta_rev_at_epoch": 91510,
        "meta_bstar": 0.00084448,
        "meta_mean_motion_dot": 2.253e-05,
        "meta_mean_motion_ddot": 0,
        "tle_line1": "1 33748U 99025DJM 25354.89004706  .00002253  00000+0  84448-3 0  9995",
        "tle_line2": "2 33748  98.5853  45.9627 0034916 216.6923 143.1869 14.32332217915106"
      },
      "geometry": {
        "type": "Point",
        "coordinates": [
          51.90572762868508,
          5.961413712888957
        ]
      }
    },
    {
      "type": "Feature",
      "properties": {
        "norad_id": 35088,
        "name": "FENGYUN 1C DEB",
        "group": "fengyun-1c-debris",
        "lat": 64.41927841639293,
        "lon": 160.3840780541296,
        "alt_km": 845.4727063054333,
        "timestamp": "2025-12-27T19:21:59.035874+00:00",
        "meta_object_name": "FENGYUN 1C DEB",
        "meta_object_id": "1999-025DJQ",
        "meta_epoch": "2025-12-26T17:32:53.221920",
        "meta_mean_motion": 14.1243137,
        "meta_eccentricity": 0.02653794,
        "meta_inclination": 94.6232,
        "meta_ra_of_asc_node": 169.5584,
        "meta_arg_of_pericenter": 159.9534,
        "meta_mean_anomaly": 201.2314,
        "meta_ephemeris_type": 0,
        "meta_classification_type": "U",
        "meta_norad_cat_id": 35088,
        "meta_element_set_no": 999,
        "meta_rev_at_epoch": 58997,
        "meta_bstar": 0.0074240562,
        "meta_mean_motion_dot": 0.00019153,
        "meta_mean_motion_ddot": 0,
        "tle_line1": "1 35088U 99025DJQ 25360.73117155  .00019153  00000+0  74241-2 0  9993",
        "tle_line2": "2 35088  94.6232 169.5584 0265379 159.9534 201.2314 14.12431370589975"
      },
      "geometry": {
        "type": "Point",
        "coordinates": [
          160.3840780541296,
          64.41927841639293
        ]
      }
    },
    {
      "type": "Feature",
      "properties": {
        "norad_id": 35089,
        "name": "FENGYUN 1C DEB",
        "group": "fengyun-1c-debris",
        "lat": 10.818030963059588,
        "lon": 9.488902923480243,
        "alt_km": 808.335453969943,
        "timestamp": "2025-12-27T19:21:59.035883+00:00",
        "meta_object_name": "FENGYUN 1C DEB",
        "meta_object_id": "1999-025DJR",
        "meta_epoch": "2025-12-23T07:02:36.109536",
        "meta_mean_motion": 14.19444078,
        "meta_eccentricity": 0.00286047,
        "meta_inclination": 98.5591,
        "meta_ra_of_asc_node": 6.7767,
        "meta_arg_of_pericenter": 34.5935,
        "meta_mean_anomaly": 325.7095,
        "meta_ephemeris_type": 0,
        "meta_classification_type": "U",
        "meta_norad_cat_id": 35089,
        "meta_element_set_no": 999,
        "meta_rev_at_epoch": 61025,
        "meta_bstar": 0.00054341362,
        "meta_mean_motion_dot": 1.106e-05,
        "meta_mean_motion_ddot": 0,
        "tle_line1": "1 35089U 99025DJR 25357.29347349  .00001106  00000+0  54341-3 0  9990",
        "tle_line2": "2 35089  98.5591   6.7767 0028604  34.5935 325.7095 14.19444078610253"
      },
      "geometry": {
        "type": "Point",
        "coordinates": [
          9.488902923480243,
          10.818030963059588
        ]
      }
    },
    {
      "type": "Feature",
      "properties": {
        "norad_id": 35090,
        "name": "FENGYUN 1C DEB",
        "group": "fengyun-1c-debris",
        "lat": -53.708993964923344,
        "lon": -177.71920360471373,
        "alt_km": 845.1999360265054,
        "timestamp": "2025-12-27T19:21:59.035893+00:00",
        "meta_object_name": "FENGYUN 1C DEB",
        "meta_object_id": "1999-025DJS",
        "meta_epoch": "2025-12-15T11:31:21.871200",
        "meta_mean_motion": 14.17610468,
        "meta_eccentricity": 0.00548506,
        "meta_inclination": 99.1994,
        "meta_ra_of_asc_node": 2.2725,
        "meta_arg_of_pericenter": 7.0781,
        "meta_mean_anomaly": 353.1155,
        "meta_ephemeris_type": 0,
        "meta_classification_type": "U",
        "meta_norad_cat_id": 35090,
        "meta_element_set_no": 999,
        "meta_rev_at_epoch": 66289,
        "meta_bstar": 0.0011364277,
        "meta_mean_motion_dot": 2.298e-05,
        "meta_mean_motion_ddot": 0,
        "tle_line1": "1 35090U 99025DJS 25349.48011425  .00002298  00000+0  11364-2 0  9997",
        "tle_line2": "2 35090  99.1994   2.2725 0054850   7.0781 353.1155 14.17610468662895"
      },
      "geometry": {
        "type": "Point",
        "coordinates": [
          -177.71920360471373,
          -53.708993964923344
        ]
      }
    }
  ]
}